ONEWEB-0021             
1 45134U 20008D   26179.81989162  .00000606  00000+0  17011-2 0  9999
2 45134  87.8819  33.9647 0001698  87.2765 272.8556 13.10372316310175
ONEWEB-0023             
1 45136U 20008F   26179.83093645  .00000335  00000+0  92293-3 0  9990
2 45136  87.8822  33.9458 0001932  80.4258 279.7087 13.10373759309607
ONEWEB-0024             
1 45137U 20008G   26179.95576154  .00000195  00000+0  52368-3 0  9998
2 45137  87.8835  33.9142 0001780  87.3872 272.7459 13.10373255309787
ONEWEB-0025             
1 45138U 20008H   26179.95549080  .00000285  00000+0  77969-3 0  9991
2 45138  87.8838  33.9040 0002283  86.1127 274.0261 13.10374458310118
ONEWEB-0026             
1 45139U 20008J   26179.60307928  .00000225  00000+0  59964-3 0  9996
2 45139  87.8879  18.7950 0001936  92.3551 267.7799 13.11418207312602
ONEWEB-0028             
1 45140U 20008K   26179.80737557 -.00000456  00000+0 -13239-2 0  9997
2 45140  87.8873  18.7623 0001663  68.9972 291.1333 13.11415246310140
ONEWEB-0032             
1 45141U 20008L   26179.60793425 -.00000085  00000+0 -27881-3 0  9999
2 45141  87.8820  33.9952 0001817  69.5385 290.5937 13.10368499309791
ONEWEB-0033             
1 45142U 20008M   26179.65869206  .00000639  00000+0  17934-2 0  9996
2 45142  87.8820  33.9915 0001947 101.4042 258.7304 13.10374402309718
ONEWEB-0035             
1 45143U 20008N   26179.67918234  .00000188  00000+0  50199-3 0  9995
2 45143  87.8816  33.9807 0001841  88.2096 271.9242 13.10373564309444
ONEWEB-0036             
1 45144U 20008P   26179.65685535  .00000620  00000+0  17409-2 0  9996
2 45144  87.8839  33.9998 0001855  78.3856 281.7479 13.10368568309865
ONEWEB-0038             
1 45145U 20008Q   26179.91858437  .00000364  00000+0  99235-3 0  9992
2 45145  87.8896  18.7427 0000688 156.5519 203.5641 13.11416620311865
ONEWEB-0039             
1 45146U 20008R   26179.66209397  .00000704  00000+0  19808-2 0  9995
2 45146  87.8821  33.9813 0001639  68.7527 291.3776 13.10372706309666
ONEWEB-0040             
1 45147U 20008S   26179.65528573  .00000660  00000+0  18555-2 0  9994
2 45147  87.8822  33.9934 0002074  79.4466 280.6895 13.10373005309360
ONEWEB-0043             
1 45149U 20008U   26179.65710823  .00000607  00000+0  17029-2 0  9993
2 45149  87.8830  33.9816 0001506  66.2572 293.8713 13.10336092309686
ONEWEB-0044             
1 45150U 20008V   26179.60951624  .00000990  00000+0  28000-2 0  9992
2 45150  87.8827  33.9927 0001921  81.3919 278.7427 13.10367566309977
ONEWEB-0045             
1 45151U 20008W   26179.91335774  .00000164  00000+0  42706-3 0  9992
2 45151  87.8891  18.7257 0001715  85.4997 274.6327 13.11417147311944
ONEWEB-0047             
1 45152U 20008X   26179.67890795  .00000231  00000+0  62679-3 0  9991
2 45152  87.8826  33.9777 0001695  91.9100 268.2222 13.10373874309705
ONEWEB-0048             
1 45153U 20008Y   26179.82668520  .00000422  00000+0  11724-2 0  9994
2 45153  87.8817  33.9683 0001762  87.2891 272.8438 13.10372510309337
ONEWEB-0049             
1 45154U 20008Z   26179.82992963  .00000292  00000+0  80158-3 0  9999
2 45154  87.8816  33.9570 0002139  78.2593 281.8775 13.10373115309550
ONEWEB-0051             
1 45155U 20008AA  26179.60648527  .00000352  00000+0  95859-3 0  9991
2 45155  87.8883  18.7935 0001835  87.5715 272.5624 13.11418929312583
ONEWEB-0052             
1 45156U 20008AB  26179.62152119  .00000693  00000+0  19480-2 0  9994
2 45156  87.8817  33.9861 0002206  77.2538 282.8836 13.10369619309439
ONEWEB-0053             
1 45157U 20008AC  26179.57723717  .00000535  00000+0  14974-2 0  9995
2 45157  87.8824  34.0146 0001868  69.7039 290.4289 13.10373491309408
ONEWEB-0054             
1 45158U 20008AD  26179.61290320 -.00000316  00000+0 -94245-3 0  9999
2 45158  87.8829  33.9920 0001880  84.8079 275.3263 13.10371860309523
ONEWEB-0056             
1 45159U 20008AE  26179.58388824  .00000636  00000+0  17851-2 0  9993
2 45159  87.8827  33.9908 0002170  87.8052 272.3323 13.10376335309677
ONEWEB-0057             
1 45160U 20008AF  26179.83020411  .00000291  00000+0  79630-3 0  9999
2 45160  87.8821  33.9538 0001926  68.9845 291.1488 13.10375018309870
ONEWEB-0058             
1 45161U 20008AG  26179.58795021  .00000677  00000+0  19018-2 0  9999
2 45161  87.8818  34.0072 0001675  90.7497 269.3822 13.10373101309914
ONEWEB-0059             
1 45162U 20008AH  26179.66053247  .00000713  00000+0  20062-2 0  9998
2 45162  87.8822  33.9919 0001677  77.0540 283.0775 13.10370017309820
ONEWEB-0062             
1 45163U 20008AJ  26179.68401158 -.00000069  00000+0 -23380-3 0  9992
2 45163  87.8824  33.9756 0001805  95.8693 264.2640 13.10370599309694
ONEWEB-0065             
1 45164U 20008AK  26179.64160203  .00000051  00000+0  10869-3 0  9999
2 45164  87.8831  33.9921 0002047  77.7099 282.4257 13.10377311309386
STARLINK-1143           
1 45179U 20012B   26179.91668981  .00272063  41575-4  56237-3 0  9996
2 45179  53.0302 132.7701 0005809  71.9901 218.5872 15.98718017  6030
