OBJECT_NAME,OBJECT_ID,EPOCH,MEAN_MOTION,ECCENTRICITY,INCLINATION,RA_OF_ASC_NODE,ARG_OF_PERICENTER,MEAN_ANOMALY,EPHEMERIS_TYPE,CLASSIFICATION_TYPE,NORAD_CAT_ID,ELEMENT_SET_NO,REV_AT_EPOCH,BSTAR,MEAN_MOTION_DOT,MEAN_MOTION_DDOT
ONEWEB-0021,2020-008D,2026-06-28T19:40:38.635968,13.10372316,.0001698,87.8819,33.9647,87.2765,272.8556,0,U,45134,999,31017,.17010566E-2,.606E-5,0
ONEWEB-0023,2020-008F,2026-06-28T19:56:32.909280,13.10373759,.00019329,87.8822,33.9458,80.4258,279.7087,0,U,45136,999,30960,.92292642E-3,.335E-5,0
ONEWEB-0024,2020-008G,2026-06-28T22:56:17.797056,13.10373255,.00017808,87.8835,33.9142,87.3872,272.7459,0,U,45137,999,30978,.52368395E-3,.195E-5,0
ONEWEB-0025,2020-008H,2026-06-28T22:55:54.405120,13.10374458,.00022831,87.8838,33.9040,86.1127,274.0261,0,U,45138,999,31011,.77968688E-3,.285E-5,0
ONEWEB-0026,2020-008J,2026-06-28T14:28:26.049792,13.11418207,.0001936,87.8879,18.7950,92.3551,267.7799,0,U,45139,999,31260,.59964348E-3,.225E-5,0
ONEWEB-0028,2020-008K,2026-06-28T19:22:37.249248,13.11415246,.00016633,87.8873,18.7623,68.9972,291.1333,0,U,45140,999,31014,-.13238831E-2,-.456E-5,0
ONEWEB-0032,2020-008L,2026-06-28T14:35:25.519200,13.10368499,.00018174,87.8820,33.9952,69.5385,290.5937,0,U,45141,999,30979,-.27881251E-3,-.85E-6,0
ONEWEB-0033,2020-008M,2026-06-28T15:48:30.993984,13.10374402,.0001947,87.8820,33.9915,101.4042,258.7304,0,U,45142,999,30971,.17933743E-2,.639E-5,0
ONEWEB-0035,2020-008N,2026-06-28T16:18:01.354176,13.10373564,.00018418,87.8816,33.9807,88.2096,271.9242,0,U,45143,999,30944,.50198625E-3,.188E-5,0
ONEWEB-0036,2020-008P,2026-06-28T15:45:52.302240,13.10368568,.00018556,87.8839,33.9998,78.3856,281.7479,0,U,45144,999,30986,.17409482E-2,.62E-5,0
ONEWEB-0038,2020-008Q,2026-06-28T22:02:45.689568,13.11416620,.00006888,87.8896,18.7427,156.5519,203.5641,0,U,45145,999,31186,.99235073E-3,.364E-5,0
ONEWEB-0039,2020-008R,2026-06-28T15:53:24.919008,13.10372706,.00016393,87.8821,33.9813,68.7527,291.3776,0,U,45146,999,30966,.19808398E-2,.704E-5,0
ONEWEB-0040,2020-008S,2026-06-28T15:43:36.687072,13.10373005,.00020745,87.8822,33.9934,79.4466,280.6895,0,U,45147,999,30936,.18555019E-2,.66E-5,0
ONEWEB-0043,2020-008U,2026-06-28T15:46:14.151072,13.10336092,.00015065,87.8830,33.9816,66.2572,293.8713,0,U,45149,999,30968,.17028887E-2,.607E-5,0
ONEWEB-0044,2020-008V,2026-06-28T14:37:42.203136,13.10367566,.00019217,87.8827,33.9927,81.3919,278.7427,0,U,45150,999,30997,.27999901E-2,.99E-5,0
ONEWEB-0045,2020-008W,2026-06-28T21:55:14.108736,13.11417147,.00017157,87.8891,18.7257,85.4997,274.6327,0,U,45151,999,31194,.42706097E-3,.164E-5,0
ONEWEB-0047,2020-008X,2026-06-28T16:17:37.646880,13.10373874,.00016959,87.8826,33.9777,91.9100,268.2222,0,U,45152,999,30970,.62679361E-3,.231E-5,0
ONEWEB-0048,2020-008Y,2026-06-28T19:50:25.601280,13.10372510,.00017626,87.8817,33.9683,87.2891,272.8438,0,U,45153,999,30933,.1172438E-2,.422E-5,0
ONEWEB-0049,2020-008Z,2026-06-28T19:55:05.920032,13.10373115,.00021394,87.8816,33.9570,78.2593,281.8775,0,U,45154,999,30955,.80157863E-3,.292E-5,0
ONEWEB-0051,2020-008AA,2026-06-28T14:33:20.327328,13.11418929,.00018354,87.8883,18.7935,87.5715,272.5624,0,U,45155,999,31258,.95859002E-3,.352E-5,0
ONEWEB-0052,2020-008AB,2026-06-28T14:54:59.430816,13.10369619,.00022063,87.8817,33.9861,77.2538,282.8836,0,U,45156,999,30943,.19479714E-2,.693E-5,0
ONEWEB-0053,2020-008AC,2026-06-28T13:51:13.291488,13.10373491,.00018689,87.8824,34.0146,69.7039,290.4289,0,U,45157,999,30940,.14973606E-2,.535E-5,0
ONEWEB-0054,2020-008AD,2026-06-28T14:42:34.836480,13.10371860,.000188,87.8829,33.9920,84.8079,275.3263,0,U,45158,999,30952,-.94245208E-3,-.316E-5,0
ONEWEB-0056,2020-008AE,2026-06-28T14:00:47.943936,13.10376335,.000217,87.8827,33.9908,87.8052,272.3323,0,U,45159,999,30967,.17850833E-2,.636E-5,0
ONEWEB-0057,2020-008AF,2026-06-28T19:55:29.635104,13.10375018,.00019266,87.8821,33.9538,68.9845,291.1488,0,U,45160,999,30987,.79629949E-3,.291E-5,0
ONEWEB-0058,2020-008AG,2026-06-28T14:06:38.898144,13.10373101,.00016759,87.8818,34.0072,90.7497,269.3822,0,U,45161,999,30991,.19017701E-2,.677E-5,0
ONEWEB-0059,2020-008AH,2026-06-28T15:51:10.005408,13.10370017,.00016773,87.8822,33.9919,77.0540,283.0775,0,U,45162,999,30982,.20061647E-2,.713E-5,0
ONEWEB-0062,2020-008AJ,2026-06-28T16:24:58.600512,13.10370599,.00018056,87.8824,33.9756,95.8693,264.2640,0,U,45163,999,30969,-.23380283E-3,-.69E-6,0
ONEWEB-0065,2020-008AK,2026-06-28T15:23:54.415392,13.10377311,.00020472,87.8831,33.9921,77.7099,282.4257,0,U,45164,999,30938,.10869186E-3,.51E-6,0
STARLINK-1143,2020-012B,2026-06-28T22:00:01.999584,15.98718017,.0005809,53.0302,132.7701,71.9901,218.5872,0,U,45179,999,603,.56237438E-3,.272063E-2,.41575447E-4
